{
  "type": "FeatureCollection",
  "features": [
    {
      "type": "Feature",
      "properties": {
        "norad_id": 34833,
        "name": "IRIDIUM 33 DEB",
        "group": "iridium-33-debris",
        "lat": -31.398608543496337,
        "lon": -132.22150929342544,
        "alt_km": 737.0972013983164,
        "timestamp": "2025-12-25T07:41:10.108370+00:00",
        "meta_object_name": "IRIDIUM 33 DEB",
        "meta_object_id": "1997-051MH",
        "meta_epoch": "2025-12-24T02:45:06.846048",
        "meta_mean_motion": 14.52439101,
        "meta_eccentricity": 0.00212786,
        "meta_inclination": 86.392,
        "meta_ra_of_asc_node": 46.091,
        "meta_arg_of_pericenter": 63.6872,
        "meta_mean_anomaly": 327.8102,
        "meta_ephemeris_type": 0,
        "meta_classification_type": "U",
        "meta_norad_cat_id": 34833,
        "meta_element_set_no": 999,
        "meta_rev_at_epoch": 87880,
        "meta_bstar": 0.00070605352,
        "meta_mean_motion_dot": 2.906e-05,
        "meta_mean_motion_ddot": 0,
        "tle_line1": "1 34833U 97051MH  25358.11466257  .00002906  00000+0  70605-3 0  9995",
        "tle_line2": "2 34833  86.3920  46.0910 0021278  63.6872 327.8102 14.52439101878807"
      },
      "geometry": {
        "type": "Point",
        "coordinates": [
          -132.22150929342544,
          -31.398608543496337
        ]
      }
    },
    {
      "type": "Feature",
      "properties": {
        "norad_id": 34870,
        "name": "IRIDIUM 33 DEB",
        "group": "iridium-33-debris",
        "lat": -15.01322362796339,
        "lon": 129.3128500295217,
        "alt_km": 637.8389368938015,
        "timestamp": "2025-12-25T07:41:10.108380+00:00",
        "meta_object_name": "IRIDIUM 33 DEB",
        "meta_object_id": "1997-051MQ",
        "meta_epoch": "2025-12-23T08:19:45.742080",
        "meta_mean_motion": 14.76622779,
        "meta_eccentricity": 0.00178135,
        "meta_inclination": 86.3116,
        "meta_ra_of_asc_node": 309.2251,
        "meta_arg_of_pericenter": 145.0656,
        "meta_mean_anomaly": 7.2154,
        "meta_ephemeris_type": 0,
        "meta_classification_type": "U",
        "meta_norad_cat_id": 34870,
        "meta_element_set_no": 999,
        "meta_rev_at_epoch": 89067,
        "meta_bstar": 0.001482504,
        "meta_mean_motion_dot": 0.0001041,
        "meta_mean_motion_ddot": 0,
        "tle_line1": "1 34870U 97051MQ  25357.34705720  .00010410  00000+0  14825-2 0  9991",
        "tle_line2": "2 34870  86.3116 309.2251 0017813 145.0656   7.2154 14.76622779890678"
      },
      "geometry": {
        "type": "Point",
        "coordinates": [
          129.3128500295217,
          -15.01322362796339
        ]
      }
    },
    {
      "type": "Feature",
      "properties": {
        "norad_id": 34896,
        "name": "IRIDIUM 33 DEB",
        "group": "iridium-33-debris",
        "lat": -65.4720216096586,
        "lon": -47.04376967779882,
        "alt_km": 690.2095354017583,
        "timestamp": "2025-12-25T07:41:10.108390+00:00",
        "meta_object_name": "IRIDIUM 33 DEB",
        "meta_object_id": "1997-051MY",
        "meta_epoch": "2025-12-24T04:12:44.288640",
        "meta_mean_motion": 14.66381715,
        "meta_eccentricity": 0.00257287,
        "meta_inclination": 86.3299,
        "meta_ra_of_asc_node": 321.5555,
        "meta_arg_of_pericenter": 173.6101,
        "meta_mean_anomaly": 201.3064,
        "meta_ephemeris_type": 0,
        "meta_classification_type": "U",
        "meta_norad_cat_id": 34896,
        "meta_element_set_no": 999,
        "meta_rev_at_epoch": 87787,
        "meta_bstar": 0.00093038371,
        "meta_mean_motion_dot": 5.188e-05,
        "meta_mean_motion_ddot": 0,
        "tle_line1": "1 34896U 97051MY  25358.17551260  .00005188  00000+0  93038-3 0  9999",
        "tle_line2": "2 34896  86.3299 321.5555 0025728 173.6101 201.3064 14.66381715877873"
      },
      "geometry": {
        "type": "Point",
        "coordinates": [
          -47.04376967779882,
          -65.4720216096586
        ]
      }
    },
    {
      "type": "Feature",
      "properties": {
        "norad_id": 34926,
        "name": "IRIDIUM 33 DEB",
        "group": "iridium-33-debris",
        "lat": -33.77359419698198,
        "lon": -174.9697353263595,
        "alt_km": 672.7110018846597,
        "timestamp": "2025-12-25T07:41:10.108401+00:00",
        "meta_object_name": "IRIDIUM 33 DEB",
        "meta_object_id": "1997-051NF",
        "meta_epoch": "2025-12-24T11:35:50.045568",
        "meta_mean_motion": 14.54934016,
        "meta_eccentricity": 0.00742773,
        "meta_inclination": 86.1319,
        "meta_ra_of_asc_node": 2.8252,
        "meta_arg_of_pericenter": 252.0201,
        "meta_mean_anomaly": 260.7718,
        "meta_ephemeris_type": 0,
        "meta_classification_type": "U",
        "meta_norad_cat_id": 34926,
        "meta_element_set_no": 999,
        "meta_rev_at_epoch": 86627,
        "meta_bstar": 0.0058051773,
        "meta_mean_motion_dot": 0.00025989,
        "meta_mean_motion_ddot": 0,
        "tle_line1": "1 34926U 97051NF  25358.48321812  .00025989  00000+0  58052-2 0  9992",
        "tle_line2": "2 34926  86.1319   2.8252 0074277 252.0201 260.7718 14.54934016866279"
      },
      "geometry": {
        "type": "Point",
        "coordinates": [
          -174.9697353263595,
          -33.77359419698198
        ]
      }
    },
    {
      "type": "Feature",
      "properties": {
        "norad_id": 34985,
        "name": "IRIDIUM 33 DEB",
        "group": "iridium-33-debris",
        "lat": 53.286083713135305,
        "lon": -133.37361372908018,
        "alt_km": 736.9409893745988,
        "timestamp": "2025-12-25T07:41:10.108411+00:00",
        "meta_object_name": "IRIDIUM 33 DEB",
        "meta_object_id": "1997-051NR",
        "meta_epoch": "2025-12-24T21:41:40.078176",
        "meta_mean_motion": 14.42058691,
        "meta_eccentricity": 0.00220591,
        "meta_inclination": 86.3682,
        "meta_ra_of_asc_node": 51.6896,
        "meta_arg_of_pericenter": 179.2427,
        "meta_mean_anomaly": 307.5347,
        "meta_ephemeris_type": 0,
        "meta_classification_type": "U",
        "meta_norad_cat_id": 34985,
        "meta_element_set_no": 999,
        "meta_rev_at_epoch": 87350,
        "meta_bstar": 0.00065682852,
        "meta_mean_motion_dot": 2.182e-05,
        "meta_mean_motion_ddot": 0,
        "tle_line1": "1 34985U 97051NR  25358.90393609  .00002182  00000+0  65683-3 0  9996",
        "tle_line2": "2 34985  86.3682  51.6896 0022059 179.2427 307.5347 14.42058691873501"
      },
      "geometry": {
        "type": "Point",
        "coordinates": [
          -133.37361372908018,
          53.286083713135305
        ]
      }
    },
    {
      "type": "Feature",
      "properties": {
        "norad_id": 35051,
        "name": "IRIDIUM 33 DEB",
        "group": "iridium-33-debris",
        "lat": -47.85509827480241,
        "lon": -0.6947024243749382,
        "alt_km": 741.8484852985375,
        "timestamp": "2025-12-25T07:41:10.108421+00:00",
        "meta_object_name": "IRIDIUM 33 DEB",
        "meta_object_id": "1997-051NX",
        "meta_epoch": "2025-12-22T18:31:37.744896",
        "meta_mean_motion": 14.47639956,
        "meta_eccentricity": 0.0010302,
        "meta_inclination": 86.324,
        "meta_ra_of_asc_node": 4.4893,
        "meta_arg_of_pericenter": 63.2582,
        "meta_mean_anomaly": 296.9674,
        "meta_ephemeris_type": 0,
        "meta_classification_type": "U",
        "meta_norad_cat_id": 35051,
        "meta_element_set_no": 999,
        "meta_rev_at_epoch": 87141,
        "meta_bstar": 0.00060447572,
        "meta_mean_motion_dot": 2.248e-05,
        "meta_mean_motion_ddot": 0,
        "tle_line1": "1 35051U 97051NX  25356.77196464  .00002248  00000+0  60448-3 0  9991",
        "tle_line2": "2 35051  86.3240   4.4893 0010302  63.2582 296.9674 14.47639956871417"
      },
      "geometry": {
        "type": "Point",
        "coordinates": [
          -0.6947024243749382,
          -47.85509827480241
        ]
      }
    },
    {
      "type": "Feature",
      "properties": {
        "norad_id": 35052,
        "name": "IRIDIUM 33 DEB",
        "group": "iridium-33-debris",
        "lat": 48.4781454246462,
        "lon": 19.23889170994298,
        "alt_km": 749.7591351830642,
        "timestamp": "2025-12-25T07:41:10.108431+00:00",
        "meta_object_name": "IRIDIUM 33 DEB",
        "meta_object_id": "1997-051NY",
        "meta_epoch": "2025-12-23T18:44:00.353760",
        "meta_mean_motion": 14.38504324,
        "meta_eccentricity": 0.00131737,
        "meta_inclination": 86.33,
        "meta_ra_of_asc_node": 15.7419,
        "meta_arg_of_pericenter": 54.1122,
        "meta_mean_anomaly": 306.1297,
        "meta_ephemeris_type": 0,
        "meta_classification_type": "U",
        "meta_norad_cat_id": 35052,
        "meta_element_set_no": 999,
        "meta_rev_at_epoch": 87434,
        "meta_bstar": 0.00016915934,
        "meta_mean_motion_dot": 5.37e-06,
        "meta_mean_motion_ddot": 0,
        "tle_line1": "1 35052U 97051NY  25357.78055965  .00000537  00000+0  16916-3 0  9994",
        "tle_line2": "2 35052  86.3300  15.7419 0013173  54.1122 306.1297 14.38504324874342"
      },
      "geometry": {
        "type": "Point",
        "coordinates": [
          19.23889170994298,
          48.4781454246462
        ]
      }
    }
  ]
}